XRISM                   
1 57800U 23137A   23302.54531431  .00006450  00000+0  52135-3 0  9995
2 57800  31.0048  43.7517 0010243  75.9889 284.1884 14.98389281  7882
